CUTE-1 (CO-55)          
1 27844U 03031E   24044.57990930  .00000949  00000+0  43969-3 0  9993
2 27844  98.6798  53.3483 0010436 141.3873 218.8053 14.23077883 70064
CUBESAT XI-IV (CO-57)   
1 27848U 03031J   24044.46628753  .00000706  00000+0  33564-3 0  9997
2 27848  98.6830  53.5476 0010052 156.4211 203.7429 14.22545719 69803
CUBESAT XI-V            
1 28895U 05043F   24044.31066915  .00003819  00000+0  69060-3 0  9993
2 28895  98.1804 180.1905 0016542  35.1749 325.0543 14.66887406976144
CUTE-1.7+APD II (CO-65) 
1 32785U 08021C   24044.52653636  .00009356  00000+0  86080-3 0  9993
2 32785  97.7410  11.1903 0012497  30.8595 329.3357 14.94917407856842
AAUSAT-II               
1 32788U 08021F   24044.48225365  .00024783  00000+0  14709-2 0  9994
2 32788  97.5867  25.0453 0004143 232.2330 127.8525 15.11311257859456
SEEDS II (CO-66)        
1 32791U 08021J   24044.84890797  .00015306  00000+0  12057-2 0  9990
2 32791  97.6832  17.0897 0007253   1.4782 358.6462 15.00857515857933
SWISSCUBE               
1 35932U 09051B   24044.60504011  .00002917  00000+0  63770-3 0  9992
2 35932  98.4892 285.3548 0007282 352.5867   7.5222 14.58546356764398
BEESAT-1                
1 35933U 09051C   24044.65864795  .00002374  00000+0  52313-3 0  9994
2 35933  98.4825 286.4736 0005833   7.4636 352.6648 14.58349826764553
ITUPSAT1                
1 35935U 09051E   24044.65447521  .00002202  00000+0  49664-3 0  9995
2 35935  98.4926 286.3157 0008195   9.8057 350.3299 14.57343403764157
TISAT 1                 
1 36799U 10035E   24044.63121333  .00012634  00000+0  10216-2 0  9996
2 36799  98.1085 288.8255 0006585 265.7539  94.2931 14.99917480738576
M-CUBED & EXP-1 PRIME   
1 37855U 11061F   24044.81568316  .00085089  00000+0  14658-2 0  9994
2 37855 101.6848 152.1000 0078558   8.3383 351.9136 15.47293447674107
AEROCUBE 4.5A           
1 38767U 12048K   24044.22940337  .00019002  00000+0  11575-2 0  9992
2 38767  64.6643 354.5707 0103796  64.4209 296.7593 15.06006791241625
AEROCUBE 4.5B           
1 38768U 12048L   24044.83021590  .00031767  00000+0  14530-2 0  9997
2 38768  64.6596 286.0563 0084040  53.5356 307.3475 15.17246461242513
STRAND-1                
1 39090U 13009E   24044.48225302  .00000871  00000+0  31521-3 0  9994
2 39090  98.3813 236.1956 0007811 264.9011  95.1283 14.35890428574342
BRITE-AUSTRIA           
1 39091U 13009F   24044.50728187  .00000579  00000+0  21507-3 0  9995
2 39091  98.3851 235.4799 0009259 272.5386  87.4740 14.35682557574377
NEE-01 PEGASO           
1 39151U 13018B   24044.77423292  .00005829  00000+0  69496-3 0  9992
2 39151  98.0218 160.9072 0016517  85.9272 274.3830 14.84581113583512
ESTCUBE 1               
1 39161U 13021C   24044.67010752  .00004270  00000+0  63312-3 0  9999
2 39161  97.8434 114.9271 0007774 272.5460  87.4859 14.75575012578764
POPACS 1                
1 39268U 13055D   24044.43483744  .00036664  00000+0  70095-3 0  9991
2 39268  80.9843 293.3152 0444672 130.8212 233.2466 14.82897228541996
POPACS 2                
1 39269U 13055E   24044.34838277  .00033495  00000+0  80636-3 0  9998
2 39269  81.0065  14.4195 0570958 342.6258  15.6072 14.51778177537452
POPACS 3                
1 39270U 13055F   24044.48430266  .00009985  00000+0  27739-3 0  9993
2 39270  81.0074  61.0036 0642705 113.2185 253.8000 14.33546019515076
ZACUBE-1 (TSHEPISOSAT)  
1 39417U 13066B   24044.87993070  .00007985  00000+0  86479-3 0  9992
2 39417  97.7197   3.9239 0051387 209.6626 150.1674 14.87518157553090
WNISAT-1                
1 39423U 13066H   24044.82493227  .00001585  00000+0  31196-3 0  9999
2 39423  97.6778 249.1998 0171995  39.9712 321.4001 14.54829368542565
TRITON-1                
1 39427U 13066M   24044.77772558  .00005333  00000+0  76903-3 0  9994
2 39427  97.8432 326.8944 0106104 121.9297 239.2283 14.72852582548087
DELFI-N3XT              
1 39428U 13066N   24044.34546077  .00008031  00000+0  10736-2 0  9992
2 39428  97.8397 326.2013 0105906 131.9444 229.0853 14.75872457547662
GOMX-1                  
1 39430U 13066Q   24044.77030213  .00005580  00000+0  94561-3 0  9997
2 39430  97.7506 286.6318 0140809 288.3299  70.2631 14.63274863544840
CUBEBUG-2 (LO-74)       
1 39440U 13066AA  24044.58678026  .00009614  00000+0  11712-2 0  9995
2 39440  97.8016 351.1949 0070910 322.2461  37.3788 14.81802765549873
NEE-02 KRYSAOR          
1 39441U 13066AB  24044.80320011  .00006629  00000+0  86048-3 0  9997
2 39441  97.8116 347.6993 0075340 341.3974  18.4486 14.79075353550708
FUNCUBE-1 (AO-73)       
1 39444U 13066AE  24044.45224818  .00008890  00000+0  90889-3 0  9999
2 39444  97.7056   6.3616 0049544 192.9956 166.9988 14.89867936551525
UWE-3                   
1 39446U 13066AG  24044.34829003  .00008032  00000+0  92872-3 0  9998
2 39446  97.7675 357.0288 0060593 269.4962  89.9309 14.84485531550172
BRITE-CA1 (TORONTO)     
1 40020U 14033L   24044.65578888  .00003376  00000+0  55459-3 0  9995
2 40020  97.8551 186.3676 0084862 129.2078 231.6702 14.68881692516698
DUCHIFAT-1              
1 40021U 14033M   24044.44846984  .00015705  00000+0  11601-2 0  9997
2 40021  98.0819  22.3708 0014693 151.1662 209.0377 15.03242148525360
NANOSATC-BR1            
1 40024U 14033Q   24044.47551814  .00012856  00000+0  10297-2 0  9992
2 40024  98.0623  11.8109 0009267 204.7434 155.3345 15.00261544524531
QB50P1                  
1 40025U 14033R   24044.81775659  .00012245  00000+0  10587-2 0  9990
2 40025  98.0276   1.8441 0009774 200.7800 159.3025 14.97311363524764
QB50P2                  
1 40032U 14033Y   24044.82158470  .00010627  00000+0  94498-3 0  9991
2 40032  97.9951 354.3219 0008980 199.9421 160.1450 14.96257288524581
PERSEUS-M2              
1 40037U 14033AD  24044.52515101  .00003853  00000+0  40835-3 0  9990
2 40037  97.9212 335.0126 0012060 243.9162 116.0814 14.89657503523269
PERSEUS-M1              
1 40039U 14033AF  24044.52959142  .00004584  00000+0  48790-3 0  9999
2 40039  97.9034 331.4187 0011823 242.9307 117.0704 14.89385893523120
POLYITAN-1              
1 40042U 14033AJ  24044.60955065  .00014773  00000+0  12157-2 0  9990
2 40042  98.0375   4.3738 0012151 197.6110 162.4693 14.99158787524151
TIGRISAT                
1 40043U 14033AK  24044.47078784  .00004193  00000+0  57398-3 0  9992
2 40043  97.6796 212.7798 0056271 350.8421   9.1759 14.77919964519033
AEROCUBE 6A             
1 40045U 14033AM  24044.46071263  .00007966  00000+0  99965-3 0  9995
2 40045  97.6608 223.1062 0051944 331.6875  28.1517 14.81456323519313
AEROCUBE 6B             
1 40046U 14033AN  24044.43302662  .00008824  00000+0  10860-2 0  9993
2 40046  97.6566 221.6848 0050502 327.8111  32.0022 14.82283635519355
UKUBE-1                 
1 40074U 14037F   24044.71514858  .00011104  00000+0  11142-2 0  9990
2 40074  98.3404 327.2769 0005438 111.3171 248.8627 14.91487063520216
BRITE-PL2 (HEWELIUSZ)   
1 40119U 14049B   24044.51118039  .00004076  00000+0  44932-3 0  9996
2 40119  97.8790 144.8858 0017260  57.2019 303.0857 14.87961674514037
GRIFEX                  
1 40379U 15003D   24044.55068744  .00910922  41439-3  15723-2 0  9992
2 40379  99.0732  52.4863 0023812 135.0313 225.2894 16.01841728500976
CP10 (EXOCUBE)          
1 40380U 15003E   24044.69595401  .00087259  00000+0  12205-2 0  9999
2 40380  99.1038  35.0235 0062029 188.5850 171.4343 15.54235175499934
AEROCUBE 5C             
1 40965U 15058B   24044.30160540  .00010167  00000+0  98938-3 0  9990
2 40965  64.7729  24.6230 0181388 347.3781  12.2812 14.81373012238537
AEROCUBE 7              
1 40966U 15058C   24044.32340202  .00013697  00000+0  12902-2 0  9995
2 40966  64.7713  19.3606 0177529 347.0542  12.6035 14.82855245238583
VELOX-II                
1 41171U 15077F   24044.01993478  .00067273  00000+0  13508-2 0  9992
2 41171  14.9906 311.9917 0003925  16.8832 343.1623 15.44792567452253
HORYU-4                 
1 41340U 16012D   24044.38283745  .00015318  00000+0  84401-3 0  9993
2 41340  31.0037  66.6507 0011104 150.5969 209.5296 15.12771106439213
E-ST@R-II               
1 41459U 16025D   24044.74440631  .00147306  00000+0  18054-2 0  9990
2 41459  98.1472 279.3442 0058284 326.2556  33.4992 15.57785331430094
RAVAN                   
1 41849U 16067B   24044.47135485  .00016120  00000+0  96823-3 0  9997
2 41849  98.0548 215.2083 0014856  91.9112 268.3818 15.10896855397137
CELTEE 1                
1 41850U 16067C   24044.41862302  .00008619  00000+0  61879-3 0  9995
2 41850  98.0867 207.7854 0000158 155.1780 204.9452 15.04570893396659
OPTICUBE 04             
1 41851U 16067D   24044.38764794  .00006594  00000+0  51252-3 0  9992
2 41851  98.0592 204.3202 0016847 111.3460 248.9563 15.01551179396504
AEROCUBE 8D             
1 41852U 16067E   24044.69319984  .00010960  00000+0  76705-3 0  9996
2 41852  98.0928 207.5400 0005533 154.4350 205.7150 15.05443527396659
AEROCUBE 8C             
1 41853U 16067F   24044.43556673  .00010495  00000+0  73569-3 0  9995
2 41853  98.0739 206.1687 0009623  97.2473 262.9846 15.05368554396604
PROMETHEUS 2-1          
1 41854U 16067G   24044.41585549  .00021817  00000+0  12669-2 0  9991
2 41854  98.0891 211.6733 0014231 119.8313 240.4332 15.12057205396856
PROMETHEUS 2-3          
1 41855U 16067H   24044.74220491  .00024673  00000+0  14326-2 0  9995
2 41855  98.0818 211.6285 0012000 128.1650 232.0662 15.12058684396908
DIDO-2                  
1 42000U 17008BE  24044.66684012  .00080572  00000+0  10980-2 0  9990
2 42000  97.1625 103.8383 0003548 225.4426 134.6541 15.57253428389263
AALTO-1                 
1 42775U 17036L   24044.59314789  .00057304  00000+0  10206-2 0  9991
2 42775  97.1251  74.3985 0005270 319.0939  40.9917 15.49922470369715
URSA MAIOR              
1 42776U 17036M   24044.58846520  .00079720  00000+0  11422-2 0  9991
2 42776  97.1235  76.9312 0003644 302.3049  57.7853 15.55899182369861
